     2.100          NAVIGATION                              RINEX VERSION / TYPE
fic2rin                                 08/23/2010 00:26:26 PGM / RUN BY / DATE
                                                            END OF HEADER
 5 10  8 22  6  0  0.0 -.268709845841D-04 -.443378667114D-11  .000000000000D+00
     .790000000000D+02 -.228437500000D+02  .498199323430D-08  .206095076993D+01
    -.106543302536D-05  .188271142542D-02  .743009150028D-05  .515376431084D+04
     .216000000000D+05 -.279396772385D-07 -.121458375471D+01  .130385160446D-06
     .956939952001D+00  .235281250000D+03  .172199888154D+00 -.815212528303D-08
    -.430375069706D-09  .100000000000D+01  .159800000000D+04  .000000000000D+00
     .240000000000D+01  .000000000000D+00 -.884756445885D-08  .790000000000D+02
     .144060000000D+05  .400000000000D+01
 6 10  8 22  6  0  0.0  .524311326444D-03 -.150066625793D-10  .000000000000D+00
     .109000000000D+03 -.481562500000D+02  .473912597505D-08  .247134750310D+01
    -.255927443504D-05  .622861494776D-02  .107884407043D-04  .515366327286D+04
     .216000000000D+05  .113621354103D-06  .292582180438D+01  .353902578354D-07
     .935319648092D+00  .156656250000D+03 -.979704581154D+00 -.796426031484D-08
     .251796202608D-09  .100000000000D+01  .159800000000D+04  .000000000000D+00
     .340000000000D+01  .000000000000D+00 -.512227416039D-08  .109000000000D+03
     .144060000000D+05  .400000000000D+01
 7 10  8 22  6  0  0.0 -.194879248738D-05  .000000000000D+00  .000000000000D+00
     .500000000000D+02  .614375000000D+02  .431410827135D-08 -.123976633875D+01
     .317394733429D-05  .396361458115D-02  .318326056004D-05  .515369648743D+04
     .216000000000D+05 -.447034835815D-07  .886557868945D+00 -.819563865662D-07
     .972317580701D+00  .325812500000D+03  .306053424120D+01 -.814641075928D-08
     .136434254463D-09  .100000000000D+01  .159800000000D+04  .000000000000D+00
     .240000000000D+01  .000000000000D+00 -.102445483208D-07  .500000000000D+02
     .144060000000D+05  .400000000000D+01
 8 10  8 22  6  0  0.0  .648107379675D-05  .113686837722D-12  .000000000000D+00
     .850000000000D+02  .492187500000D+02  .392302055241D-08 -.185865320021D+01
     .248663127422D-05  .113854366355D-01  .286288559437D-05  .515366664505D+04
     .216000000000D+05 -.335276126862D-07  .956272368354D+00 -.135973095894D-06
     .993713132118D+00  .342781250000D+03  .311985033061D+01 -.795568852922D-08
     .222509268404D-09  .100000000000D+01  .159800000000D+04  .000000000000D+00
     .485000000000D+01  .000000000000D+00 -.372529029846D-08  .850000000000D+02
     .144060000000D+05  .400000000000D+01
 9 10  8 22  6  0  0.0  .257994979620D-04  .227373675443D-11  .000000000000D+00
     .890000000000D+02  .687187500000D+02  .408267005960D-08 -.199388056956D+01
     .377558171749D-05  .171363655245D-01  .258162617683D-05  .515370720482D+04
     .216000000000D+05  .283122062683D-06  .856005601669D+00  .173225998878D-06
     .981394776723D+00  .341031250000D+03  .154591927319D+01 -.794854537453D-08
     .117147736816D-09  .100000000000D+01  .159800000000D+04  .000000000000D+00
     .340000000000D+01  .000000000000D+00 -.558793544769D-08  .890000000000D+02
     .144060000000D+05  .400000000000D+01
10 10  8 22  6  0  0.0 -.502988696098D-04 -.102318153949D-11  .000000000000D+00
     .730000000000D+02 -.267187500000D+02  .500235122515D-08  .215192847056D+01
    -.140815973282D-05  .925567047670D-02  .761821866035D-05  .515350655556D+04
     .216000000000D+05 -.227242708206D-06 -.118930284941D+01 -.800937414169D-07
     .951960328077D+00  .230187500000D+03  .662076719181D+00 -.810390898891D-08
    -.425374861428D-09  .100000000000D+01  .159800000000D+04  .000000000000D+00
     .240000000000D+01  .000000000000D+00 -.279396772385D-08  .730000000000D+02
     .144060000000D+05  .400000000000D+01
12 10  8 22  6  0  0.0 -.806786119938D-04  .386535248253D-11  .000000000000D+00
     .580000000000D+02 -.108093750000D+03  .414660129402D-08 -.131472926597D+01
    -.550597906113D-05  .335356732830D-02  .539794564247D-05  .515363261414D+04
     .216000000000D+05 -.104308128357D-06  .194112363136D+01  .745058059692D-08
     .971663940126D+00  .281281250000D+03 -.342483982678D+00 -.806855037322D-08
    -.253939149013D-09  .100000000000D+01  .159800000000D+04  .000000000000D+00
     .240000000000D+01  .000000000000D+00 -.116415321827D-07  .580000000000D+02
     .144060000000D+05  .400000000000D+01
13 10  8 22  6  0  0.0  .299220439047D-03 -.795807864051D-12  .000000000000D+00
     .940000000000D+02  .737812500000D+02  .356157692540D-08  .115504827733D+01
     .360980629921D-05  .440827419516D-02  .103451311588D-04  .515372166824D+04
     .216000000000D+05 -.521540641785D-07 -.927439211223D-01 -.102445483208D-06
     .992564615615D+00  .196406250000D+03  .179699647406D+01 -.751781314709D-08
    -.123933733766D-09  .100000000000D+01  .159800000000D+04  .000000000000D+00
     .240000000000D+01  .000000000000D+00 -.107102096081D-07  .940000000000D+02
     .144060000000D+05  .400000000000D+01
14 10  8 22  6  0  0.0  .809477642179D-04  .386535248253D-11  .000000000000D+00
     .800000000000D+02  .827812500000D+02  .374051295024D-08  .107829377579D+01
     .439584255219D-05  .543561996892D-02  .113677233458D-04  .515378052521D+04
     .216000000000D+05 -.651925802231D-07 -.115081523025D+00  .745058059692D-07
     .985765112822D+00  .175562500000D+03 -.214229735524D+01 -.769282043685D-08
    -.146791828755D-09  .100000000000D+01  .159800000000D+04  .000000000000D+00
     .240000000000D+01  .000000000000D+00 -.884756445885D-08  .800000000000D+02
     .144060000000D+05  .400000000000D+01
15 10  8 22  6  0  0.0 -.220283865929D-03  .557065504836D-11  .000000000000D+00
     .108000000000D+03  .780312500000D+02  .450375902821D-08  .968871678629D+00
     .407174229622D-05  .262509565800D-02  .104326754808D-04  .515380756760D+04
     .216000000000D+05  .298023223877D-07 -.181859888794D+00 -.130385160446D-07
     .953226493915D+00  .169187500000D+03 -.197620455319D+00 -.798140388608D-08
    -.239652839646D-09  .100000000000D+01  .159800000000D+04  .000000000000D+00
     .340000000000D+01  .000000000000D+00 -.977888703346D-08  .108000000000D+03
     .144060000000D+05  .400000000000D+01
16 10  8 22  6  0  0.0 -.101458281279D-03 -.352429196937D-11  .000000000000D+00
     .190000000000D+02 -.107312500000D+03  .416231623432D-08  .264462180071D+01
    -.552833080292D-05  .582577090245D-02  .499002635479D-05  .515364365005D+04
     .216000000000D+05  .223517417908D-07  .195866176185D+01  .931322574615D-08
     .972845426414D+00  .291812500000D+03 -.168907283803D+00 -.801676250177D-08
    -.329656588663D-09  .100000000000D+01  .159800000000D+04  .000000000000D+00
     .240000000000D+01  .000000000000D+00 -.102445483208D-07  .190000000000D+02
     .144060000000D+05  .400000000000D+01
18 10  8 22  6  0  0.0  .884621404111D-04  .227373675443D-11  .000000000000D+00
     .710000000000D+02 -.318437500000D+02  .528343436196D-08  .298938745722D+01
    -.172480940819D-05  .118190764915D-01  .748783349991D-05  .515371621323D+04
     .216000000000D+05 -.260770320892D-07 -.119065949819D+01 -.223517417908D-06
     .935915304446D+00  .220531250000D+03 -.230519735320D+01 -.815712549130D-08
    -.553951645738D-09  .100000000000D+01  .159800000000D+04  .000000000000D+00
     .240000000000D+01  .000000000000D+00 -.107102096081D-07  .710000000000D+02
     .144060000000D+05  .400000000000D+01
19 10  8 22  6  0  0.0 -.596037134528D-04 -.306954461848D-11  .000000000000D+00
     .640000000000D+02 -.347187500000D+02  .429982196199D-08  .809822408742D+00
    -.172294676304D-05  .672234024387D-02  .106543302536D-04  .515378093529D+04
     .216000000000D+05  .158324837685D-06  .305634255959D+01  .800937414169D-07
     .958524081621D+00  .173125000000D+03 -.869077484223D-01 -.783389774186D-08
     .362157942475D-09  .100000000000D+01  .159800000000D+04  .000000000000D+00
     .240000000000D+01  .000000000000D+00 -.149011611938D-07  .640000000000D+02
     .144060000000D+05  .400000000000D+01
20 10  8 22  6  0  0.0  .519128516316D-04 -.454747350886D-12  .000000000000D+00
     .850000000000D+02 -.347812500000D+02  .543772650314D-08 -.299738115760D+01
    -.174529850483D-05  .410940242000D-02  .680424273014D-05  .515354695702D+04
     .216000000000D+05  .968575477600D-07 -.124463497108D+01 -.707805156708D-07
     .935830772651D+00  .233906250000D+03  .130673677981D+01 -.838284917932D-08
    -.419303179946D-09  .100000000000D+01  .159800000000D+04  .000000000000D+00
     .240000000000D+01  .000000000000D+00 -.791624188423D-08  .850000000000D+02
     .144060000000D+05  .400000000000D+01
21 10  8 22  6  0  0.0 -.827494077384D-04 -.272848410532D-11  .000000000000D+00
     .820000000000D+02  .265937500000D+02  .551808699333D-08 -.215297665429D+01
     .100769102573D-05  .168017804390D-01  .537745654583D-05  .515363705444D+04
     .216000000000D+05  .212341547012D-06 -.224742449315D+01 -.158324837685D-06
     .932206691545D+00  .258000000000D+03 -.245086605604D+01 -.833856162028D-08
     .621454457501D-09  .100000000000D+01  .159800000000D+04  .000000000000D+00
     .240000000000D+01  .000000000000D+00 -.121071934700D-07  .820000000000D+02
     .144060000000D+05  .400000000000D+01
22 10  8 22  6  0  0.0  .164764467627D-03 -.909494701773D-12  .000000000000D+00
     .800000000000D+01 -.315937500000D+02  .542701177111D-08  .208181672160D+01
    -.167638063431D-05  .558326777536D-02  .752508640289D-05  .515371428299D+04
     .216000000000D+05  .931322574615D-08 -.118593119043D+01 -.162050127983D-06
     .933604606322D+00  .221281250000D+03 -.193920797232D+01 -.832963267692D-08
    -.497877881469D-09  .100000000000D+01  .159800000000D+04  .000000000000D+00
     .240000000000D+01  .000000000000D+00 -.176951289177D-07  .800000000000D+01
     .144060000000D+05  .400000000000D+01
